CCSDS_OMM_VERS = 2.0
CREATION_DATE  = 
ORIGINATOR     = 

OBJECT_NAME    = STARLINK-36407
OBJECT_ID      = 2026-018Z
CENTER_NAME    = EARTH
REF_FRAME      = TEME
TIME_SYSTEM    = UTC
MEAN_ELEMENT_THEORY = SGP/SGP4

EPOCH          = 2026-02-25T03:02:35.412000
MEAN_MOTION    = 15.75254925
ECCENTRICITY   = .0002802
INCLINATION    = 97.2852
RA_OF_ASC_NODE = 121.3711
ARG_OF_PERICENTER = 352.8295
MEAN_ANOMALY   = 7.2930

EPHEMERIS_TYPE = 0
CLASSIFICATION_TYPE = U
NORAD_CAT_ID   = 67612
ELEMENT_SET_NO = 999
REV_AT_EPOCH   = 538
BSTAR          = .12885E-2
MEAN_MOTION_DOT = .19713E-2
MEAN_MOTION_DDOT = 0

CCSDS_OMM_VERS = 2.0
CREATION_DATE  = 
ORIGINATOR     = 

OBJECT_NAME    = STARLINK-36597
OBJECT_ID      = 2026-018AA
CENTER_NAME    = EARTH
REF_FRAME      = TEME
TIME_SYSTEM    = UTC
MEAN_ELEMENT_THEORY = SGP/SGP4

EPOCH          = 2026-02-25T04:00:01.999584
MEAN_MOTION    = 15.75232605
ECCENTRICITY   = .0001196
INCLINATION    = 97.2858
RA_OF_ASC_NODE = 121.4696
ARG_OF_PERICENTER = 49.9438
MEAN_ANOMALY   = 308.2202

EPHEMERIS_TYPE = 0
CLASSIFICATION_TYPE = U
NORAD_CAT_ID   = 67613
ELEMENT_SET_NO = 999
REV_AT_EPOCH   = 534
BSTAR          = -.42841E-3
MEAN_MOTION_DOT = -.63672E-3
MEAN_MOTION_DDOT = 0

CCSDS_OMM_VERS = 2.0
CREATION_DATE  = 
ORIGINATOR     = 

OBJECT_NAME    = NEONSAT-1A
OBJECT_ID      = 2026-019A
CENTER_NAME    = EARTH
REF_FRAME      = TEME
TIME_SYSTEM    = UTC
MEAN_ELEMENT_THEORY = SGP/SGP4

EPOCH          = 2026-02-24T16:55:30.301248
MEAN_MOTION    = 15.07669819
ECCENTRICITY   = .00127192
INCLINATION    = 97.4094
RA_OF_ASC_NODE = 179.7487
ARG_OF_PERICENTER = 214.1107
MEAN_ANOMALY   = 145.9306

EPHEMERIS_TYPE = 0
CLASSIFICATION_TYPE = U
NORAD_CAT_ID   = 67614
ELEMENT_SET_NO = 999
REV_AT_EPOCH   = 386
BSTAR          = .24312375E-3
MEAN_MOTION_DOT = .3652E-4
MEAN_MOTION_DDOT = 0

CCSDS_OMM_VERS = 2.0
CREATION_DATE  = 
ORIGINATOR     = 

OBJECT_NAME    = ELECTRON KICK STAGE R/B
OBJECT_ID      = 2026-019C
CENTER_NAME    = EARTH
REF_FRAME      = TEME
TIME_SYSTEM    = UTC
MEAN_ELEMENT_THEORY = SGP/SGP4

EPOCH          = 2026-02-25T02:13:23.358144
MEAN_MOTION    = 15.73720941
ECCENTRICITY   = .0145601
INCLINATION    = 97.4009
RA_OF_ASC_NODE = 182.2790
ARG_OF_PERICENTER = 167.5706
MEAN_ANOMALY   = 192.9213

EPHEMERIS_TYPE = 0
CLASSIFICATION_TYPE = U
NORAD_CAT_ID   = 67616
ELEMENT_SET_NO = 999
REV_AT_EPOCH   = 406
BSTAR          = .19947E-2
MEAN_MOTION_DOT = .550615E-2
MEAN_MOTION_DDOT = .98385E-4

CCSDS_OMM_VERS = 2.0
CREATION_DATE  = 
ORIGINATOR     = 

OBJECT_NAME    = STARLINK-36548
OBJECT_ID      = 2026-020A
CENTER_NAME    = EARTH
REF_FRAME      = TEME
TIME_SYSTEM    = UTC
MEAN_ELEMENT_THEORY = SGP/SGP4

EPOCH          = 2026-02-24T18:08:59.690688
MEAN_MOTION    = 15.76457629
ECCENTRICITY   = .00008352
INCLINATION    = 42.9970
RA_OF_ASC_NODE = 220.8858
ARG_OF_PERICENTER = 148.5687
MEAN_ANOMALY   = 211.5232

EPHEMERIS_TYPE = 0
CLASSIFICATION_TYPE = U
NORAD_CAT_ID   = 67617
ELEMENT_SET_NO = 999
REV_AT_EPOCH   = 404
BSTAR          = .1728001E-2
MEAN_MOTION_DOT = .291995E-2
MEAN_MOTION_DDOT = 0

CCSDS_OMM_VERS = 2.0
CREATION_DATE  = 
ORIGINATOR     = 

OBJECT_NAME    = STARLINK-36601
OBJECT_ID      = 2026-020B
CENTER_NAME    = EARTH
REF_FRAME      = TEME
TIME_SYSTEM    = UTC
MEAN_ELEMENT_THEORY = SGP/SGP4

EPOCH          = 2026-02-25T04:00:01.999584
MEAN_MOTION    = 15.76357109
ECCENTRICITY   = .0001679
INCLINATION    = 42.9990
RA_OF_ASC_NODE = 217.7720
ARG_OF_PERICENTER = 267.4097
MEAN_ANOMALY   = 153.5313

EPHEMERIS_TYPE = 0
CLASSIFICATION_TYPE = U
NORAD_CAT_ID   = 67618
ELEMENT_SET_NO = 999
REV_AT_EPOCH   = 537
BSTAR          = .36411E-3
MEAN_MOTION_DOT = .59196E-3
MEAN_MOTION_DDOT = 0

CCSDS_OMM_VERS = 2.0
CREATION_DATE  = 
ORIGINATOR     = 

OBJECT_NAME    = STARLINK-36119
OBJECT_ID      = 2026-020C
CENTER_NAME    = EARTH
REF_FRAME      = TEME
TIME_SYSTEM    = UTC
MEAN_ELEMENT_THEORY = SGP/SGP4

EPOCH          = 2026-02-24T04:24:43.614432
MEAN_MOTION    = 15.76425088
ECCENTRICITY   = .0001548
INCLINATION    = 42.9986
RA_OF_ASC_NODE = 224.3355
ARG_OF_PERICENTER = 43.2455
MEAN_ANOMALY   = 316.8536

EPHEMERIS_TYPE = 0
CLASSIFICATION_TYPE = U
NORAD_CAT_ID   = 67619
ELEMENT_SET_NO = 999
REV_AT_EPOCH   = 395
BSTAR          = .18893E-2
MEAN_MOTION_DOT = .319895E-2
MEAN_MOTION_DDOT = 0

CCSDS_OMM_VERS = 2.0
CREATION_DATE  = 
ORIGINATOR     = 

OBJECT_NAME    = STARLINK-36607
OBJECT_ID      = 2026-020D
CENTER_NAME    = EARTH
REF_FRAME      = TEME
TIME_SYSTEM    = UTC
MEAN_ELEMENT_THEORY = SGP/SGP4

EPOCH          = 2026-02-24T17:21:42.070176
MEAN_MOTION    = 15.76420993
ECCENTRICITY   = .00013909
INCLINATION    = 42.9985
RA_OF_ASC_NODE = 220.6216
ARG_OF_PERICENTER = 248.8152
MEAN_ANOMALY   = 111.2569

EPHEMERIS_TYPE = 0
CLASSIFICATION_TYPE = U
NORAD_CAT_ID   = 67620
ELEMENT_SET_NO = 999
REV_AT_EPOCH   = 404
BSTAR          = .1477929E-2
MEAN_MOTION_DOT = .247949E-2
MEAN_MOTION_DDOT = 0

CCSDS_OMM_VERS = 2.0
CREATION_DATE  = 
ORIGINATOR     = 

OBJECT_NAME    = STARLINK-36615
OBJECT_ID      = 2026-020E
CENTER_NAME    = EARTH
REF_FRAME      = TEME
TIME_SYSTEM    = UTC
MEAN_ELEMENT_THEORY = SGP/SGP4

EPOCH          = 2026-02-25T04:00:01.999584
MEAN_MOTION    = 15.76363473
ECCENTRICITY   = .0002023
INCLINATION    = 42.9993
RA_OF_ASC_NODE = 217.6467
ARG_OF_PERICENTER = 272.4895
MEAN_ANOMALY   = 198.2210

EPHEMERIS_TYPE = 0
CLASSIFICATION_TYPE = U
NORAD_CAT_ID   = 67621
ELEMENT_SET_NO = 999
REV_AT_EPOCH   = 537
BSTAR          = .13217E-3
MEAN_MOTION_DOT = .21087E-3
MEAN_MOTION_DDOT = 0

CCSDS_OMM_VERS = 2.0
CREATION_DATE  = 
ORIGINATOR     = 

OBJECT_NAME    = STARLINK-36614
OBJECT_ID      = 2026-020F
CENTER_NAME    = EARTH
REF_FRAME      = TEME
TIME_SYSTEM    = UTC
MEAN_ELEMENT_THEORY = SGP/SGP4

EPOCH          = 2026-02-24T19:30:46.561824
MEAN_MOTION    = 15.76450312
ECCENTRICITY   = .00019843
INCLINATION    = 43.0005
RA_OF_ASC_NODE = 220.4495
ARG_OF_PERICENTER = 279.2410
MEAN_ANOMALY   = 80.8235

EPHEMERIS_TYPE = 0
CLASSIFICATION_TYPE = U
NORAD_CAT_ID   = 67622
ELEMENT_SET_NO = 999
REV_AT_EPOCH   = 405
BSTAR          = .16557152E-2
MEAN_MOTION_DOT = .279238E-2
MEAN_MOTION_DDOT = 0

CCSDS_OMM_VERS = 2.0
CREATION_DATE  = 
ORIGINATOR     = 

OBJECT_NAME    = STARLINK-36600
OBJECT_ID      = 2026-020G
CENTER_NAME    = EARTH
REF_FRAME      = TEME
TIME_SYSTEM    = UTC
MEAN_ELEMENT_THEORY = SGP/SGP4

EPOCH          = 2026-02-24T21:05:09.988512
MEAN_MOTION    = 15.76443087
ECCENTRICITY   = .0001634
INCLINATION    = 42.9995
RA_OF_ASC_NODE = 220.0814
ARG_OF_PERICENTER = 285.6285
MEAN_ANOMALY   = 74.4404

EPHEMERIS_TYPE = 0
CLASSIFICATION_TYPE = U
NORAD_CAT_ID   = 67623
ELEMENT_SET_NO = 999
REV_AT_EPOCH   = 406
BSTAR          = .94116E-3
MEAN_MOTION_DOT = .156156E-2
MEAN_MOTION_DDOT = 0

CCSDS_OMM_VERS = 2.0
CREATION_DATE  = 
ORIGINATOR     = 

OBJECT_NAME    = STARLINK-36439
OBJECT_ID      = 2026-020H
CENTER_NAME    = EARTH
REF_FRAME      = TEME
TIME_SYSTEM    = UTC
MEAN_ELEMENT_THEORY = SGP/SGP4

EPOCH          = 2026-02-24T19:18:09.364320
MEAN_MOTION    = 15.76433471
ECCENTRICITY   = .00018503
INCLINATION    = 42.9978
RA_OF_ASC_NODE = 220.3777
ARG_OF_PERICENTER = 284.4663
MEAN_ANOMALY   = 75.6001

EPHEMERIS_TYPE = 0
CLASSIFICATION_TYPE = U
NORAD_CAT_ID   = 67624
ELEMENT_SET_NO = 999
REV_AT_EPOCH   = 405
BSTAR          = .807722E-3
MEAN_MOTION_DOT = .133532E-2
MEAN_MOTION_DDOT = 0

