STARLINK-36407          
1 67612U 26018Z   26056.12679875  .00197130  00000+0  12885-2 0  9999
2 67612  97.2852 121.3711 0002802 352.8295   7.2930 15.75254925  5381
STARLINK-36597          
1 67613U 26018AA  26056.16668981 -.00063672  00000+0 -42841-3 0  9991
2 67613  97.2858 121.4696 0001196  49.9438 308.2202 15.75232605  5342
NEONSAT-1A              
1 67614U 26019A   26055.70521182  .00003652  00000+0  24312-3 0  9996
2 67614  97.4094 179.7487 0012719 214.1107 145.9306 15.07669819  3865
ELECTRON KICK STAGE R/B 
1 67616U 26019C   26056.09263146  .00550615  98385-4  19947-2 0  9995
2 67616  97.4009 182.2790 0145601 167.5706 192.9213 15.73720941  4061
STARLINK-36548          
1 67617U 26020A   26055.75624642  .00291995  00000+0  17280-2 0  9995
2 67617  42.9970 220.8858 0000835 148.5687 211.5232 15.76457629  4044
STARLINK-36601          
1 67618U 26020B   26056.16668981  .00059196  00000+0  36411-3 0  9999
2 67618  42.9990 217.7720 0001679 267.4097 153.5313 15.76357109  5377
STARLINK-36119          
1 67619U 26020C   26055.18383813  .00319895  00000+0  18893-2 0  9997
2 67619  42.9986 224.3355 0001548  43.2455 316.8536 15.76425088  3959
STARLINK-36607          
1 67620U 26020D   26055.72340359  .00247949  00000+0  14779-2 0  9996
2 67620  42.9985 220.6216 0001390 248.8152 111.2569 15.76420993  4041
STARLINK-36615          
1 67621U 26020E   26056.16668981  .00021087  00000+0  13217-3 0  9990
2 67621  42.9993 217.6467 0002023 272.4895 198.2210 15.76363473  5370
STARLINK-36614          
1 67622U 26020F   26055.81303891  .00279238  00000+0  16557-2 0  9990
2 67622  43.0005 220.4495 0001984 279.2410  80.8235 15.76450312  4059
STARLINK-36600          
1 67623U 26020G   26055.87858783  .00156156  00000+0  94116-3 0  9993
2 67623  42.9995 220.0814 0001634 285.6285  74.4404 15.76443087  4069
STARLINK-36439          
1 67624U 26020H   26055.80427505  .00133532  00000+0  80772-3 0  9997
2 67624  42.9978 220.3777 0001850 284.4663  75.6001 15.76433471  4050
